[{"OBJECT_NAME":"STARLINK-34352","OBJECT_ID":"2025-120B","EPOCH":"2026-03-09T09:58:58.658016","MEAN_MOTION":15.30195099,"ECCENTRICITY":0.00013497,"INCLINATION":53.1582,"RA_OF_ASC_NODE":118.0066,"ARG_OF_PERICENTER":71.674,"MEAN_ANOMALY":288.4407,"EPHEMERIS_TYPE":0,"CLASSIFICATION_TYPE":"U","NORAD_CAT_ID":64257,"ELEMENT_SET_NO":999,"REV_AT_EPOCH":4382,"BSTAR":0.00080299355,"MEAN_MOTION_DOT":0.00023495,"MEAN_MOTION_DDOT":0},{"OBJECT_NAME":"ELECTRON KICK STAGE R\/B","OBJECT_ID":"2022-147B","EPOCH":"2026-03-09T22:28:20.187264","MEAN_MOTION":15.28920172,"ECCENTRICITY":0.00095089,"INCLINATION":97.642,"RA_OF_ASC_NODE":85.1135,"ARG_OF_PERICENTER":110.4683,"MEAN_ANOMALY":249.7578,"EPHEMERIS_TYPE":0,"CLASSIFICATION_TYPE":"U","NORAD_CAT_ID":54228,"ELEMENT_SET_NO":999,"REV_AT_EPOCH":18390,"BSTAR":0.00083201931,"MEAN_MOTION_DOT":0.00023374,"MEAN_MOTION_DDOT":0}]
